IDEFIX & ARIANE 42P R/B 
1 27422U 02021B   26028.85085747  .00000536  00000+0  22021-3 0  9997
2 27422  98.5832 327.9435 0011007 308.9241  51.0960 14.30995230238328
AQUA                    
1 27424U 02022A   26028.91948147  .00001781  00000+0  36607-3 0  9997
2 27424  98.4103 355.5827 0001815  62.4290   1.4641 14.61871847262923
CZ-4B R/B               
1 27432U 02024C   26028.76442990  .00000084  00000+0  65995-4 0  9994
2 27432  98.8924  82.3556 0050898 135.7039 335.9813 14.14539846223595
MIDORI II (ADEOS-II)    
1 27597U 02056A   26028.90055272  .00000562  00000+0  23868-3 0  9993
2 27597  98.7701 347.1217 0002038  98.9911 261.1501 14.29252257204617
H-2A R/B                
1 27601U 02056E   26028.92989917  .00000593  00000+0  22272-3 0  9995
2 27601  98.3132 350.8270 0069081 280.3806 148.6082 14.33729434208414
CZ-4B R/B               
1 28059U 03049C   26028.97913106  .00000826  00000+0  20076-3 0  9997
2 28059  98.6833  22.3406 0048121 354.3161   5.7482 14.54972176180820
CZ-2C R/B               
1 28222U 04012C   26028.95889637  .00064904  00000+0  79437-3 0  9991
2 28222  97.7341  90.6119 0016797  97.3398 262.9767 15.60010060198077
SL-16 R/B               
1 28353U 04021B   26028.92860763 -.00000214  00000+0 -86626-4 0  9997
2 28353  71.0021 315.9364 0002651 109.7366 250.4043 14.14590648117213
CZ-4B R/B               
1 28415U 04035C   26028.98000595  .00012699  00000+0  45498-3 0  9995
2 28415  97.3564  63.7104 0034291 108.7725 251.7241 15.28307708173842
CZ-2C R/B               
1 28480U 04046B   26028.72811231  .00000316  00000+0  13338-3 0  9999
2 28480  98.1999 306.1925 0138209 273.1494  85.3883 14.26976072102808
ARIANE 5 R/B            
1 28499U 04049H   26028.95148218  .00002016  00000+0  22739-3 0  9999
2 28499  98.2558 195.9395 0085328 119.5052 241.4706 14.85174819139893
CZ-2D R/B               
1 28738U 05024B   26028.96163362  .00051017  00000+0  71293-3 0  9991
2 28738  97.3622  42.7584 0006325 143.8864 216.2820 15.56677583133594
