CCSDS_OMM_VERS = 2.0
CREATION_DATE  = 
ORIGINATOR     = 

OBJECT_NAME    = IDEFIX & ARIANE 42P R/B
OBJECT_ID      = 2002-021B
CENTER_NAME    = EARTH
REF_FRAME      = TEME
TIME_SYSTEM    = UTC
MEAN_ELEMENT_THEORY = SGP/SGP4

EPOCH          = 2026-01-28T20:25:14.085408
MEAN_MOTION    = 14.30995230
ECCENTRICITY   = .00110079
INCLINATION    = 98.5832
RA_OF_ASC_NODE = 327.9435
ARG_OF_PERICENTER = 308.9241
MEAN_ANOMALY   = 51.0960

EPHEMERIS_TYPE = 0
CLASSIFICATION_TYPE = U
NORAD_CAT_ID   = 27422
ELEMENT_SET_NO = 999
REV_AT_EPOCH   = 23832
BSTAR          = .22021177E-3
MEAN_MOTION_DOT = .536E-5
MEAN_MOTION_DDOT = 0

CCSDS_OMM_VERS = 2.0
CREATION_DATE  = 
ORIGINATOR     = 

OBJECT_NAME    = AQUA
OBJECT_ID      = 2002-022A
CENTER_NAME    = EARTH
REF_FRAME      = TEME
TIME_SYSTEM    = UTC
MEAN_ELEMENT_THEORY = SGP/SGP4

EPOCH          = 2026-01-28T22:04:03.199008
MEAN_MOTION    = 14.61871847
ECCENTRICITY   = .00018154
INCLINATION    = 98.4103
RA_OF_ASC_NODE = 355.5827
ARG_OF_PERICENTER = 62.4290
MEAN_ANOMALY   = 1.4641

EPHEMERIS_TYPE = 0
CLASSIFICATION_TYPE = U
NORAD_CAT_ID   = 27424
ELEMENT_SET_NO = 999
REV_AT_EPOCH   = 26292
BSTAR          = .36607474E-3
MEAN_MOTION_DOT = .1781E-4
MEAN_MOTION_DDOT = 0

CCSDS_OMM_VERS = 2.0
CREATION_DATE  = 
ORIGINATOR     = 

OBJECT_NAME    = CZ-4B R/B
OBJECT_ID      = 2002-024C
CENTER_NAME    = EARTH
REF_FRAME      = TEME
TIME_SYSTEM    = UTC
MEAN_ELEMENT_THEORY = SGP/SGP4

EPOCH          = 2026-01-28T18:20:46.743360
MEAN_MOTION    = 14.14539846
ECCENTRICITY   = .00508986
INCLINATION    = 98.8924
RA_OF_ASC_NODE = 82.3556
ARG_OF_PERICENTER = 135.7039
MEAN_ANOMALY   = 335.9813

EPHEMERIS_TYPE = 0
CLASSIFICATION_TYPE = U
NORAD_CAT_ID   = 27432
ELEMENT_SET_NO = 999
REV_AT_EPOCH   = 22359
BSTAR          = .65994591E-4
MEAN_MOTION_DOT = .84E-6
MEAN_MOTION_DDOT = 0

CCSDS_OMM_VERS = 2.0
CREATION_DATE  = 
ORIGINATOR     = 

OBJECT_NAME    = MIDORI II (ADEOS-II)
OBJECT_ID      = 2002-056A
CENTER_NAME    = EARTH
REF_FRAME      = TEME
TIME_SYSTEM    = UTC
MEAN_ELEMENT_THEORY = SGP/SGP4

EPOCH          = 2026-01-28T21:36:47.755008
MEAN_MOTION    = 14.29252257
ECCENTRICITY   = .00020388
INCLINATION    = 98.7701
RA_OF_ASC_NODE = 347.1217
ARG_OF_PERICENTER = 98.9911
MEAN_ANOMALY   = 261.1501

EPHEMERIS_TYPE = 0
CLASSIFICATION_TYPE = U
NORAD_CAT_ID   = 27597
ELEMENT_SET_NO = 999
REV_AT_EPOCH   = 20461
BSTAR          = .23867664E-3
MEAN_MOTION_DOT = .562E-5
MEAN_MOTION_DDOT = 0

CCSDS_OMM_VERS = 2.0
CREATION_DATE  = 
ORIGINATOR     = 

OBJECT_NAME    = H-2A R/B
OBJECT_ID      = 2002-056E
CENTER_NAME    = EARTH
REF_FRAME      = TEME
TIME_SYSTEM    = UTC
MEAN_ELEMENT_THEORY = SGP/SGP4

EPOCH          = 2026-01-28T22:19:03.288288
MEAN_MOTION    = 14.33729434
ECCENTRICITY   = .00690815
INCLINATION    = 98.3132
RA_OF_ASC_NODE = 350.8270
ARG_OF_PERICENTER = 280.3806
MEAN_ANOMALY   = 148.6082

EPHEMERIS_TYPE = 0
CLASSIFICATION_TYPE = U
NORAD_CAT_ID   = 27601
ELEMENT_SET_NO = 999
REV_AT_EPOCH   = 20841
BSTAR          = .2227162E-3
MEAN_MOTION_DOT = .593E-5
MEAN_MOTION_DDOT = 0

CCSDS_OMM_VERS = 2.0
CREATION_DATE  = 
ORIGINATOR     = 

OBJECT_NAME    = CZ-4B R/B
OBJECT_ID      = 2003-049C
CENTER_NAME    = EARTH
REF_FRAME      = TEME
TIME_SYSTEM    = UTC
MEAN_ELEMENT_THEORY = SGP/SGP4

EPOCH          = 2026-01-28T23:29:56.923584
MEAN_MOTION    = 14.54972176
ECCENTRICITY   = .00481215
INCLINATION    = 98.6833
RA_OF_ASC_NODE = 22.3406
ARG_OF_PERICENTER = 354.3161
MEAN_ANOMALY   = 5.7482

EPHEMERIS_TYPE = 0
CLASSIFICATION_TYPE = U
NORAD_CAT_ID   = 28059
ELEMENT_SET_NO = 999
REV_AT_EPOCH   = 18082
BSTAR          = .20076027E-3
MEAN_MOTION_DOT = .826E-5
MEAN_MOTION_DDOT = 0

CCSDS_OMM_VERS = 2.0
CREATION_DATE  = 
ORIGINATOR     = 

OBJECT_NAME    = CZ-2C R/B
OBJECT_ID      = 2004-012C
CENTER_NAME    = EARTH
REF_FRAME      = TEME
TIME_SYSTEM    = UTC
MEAN_ELEMENT_THEORY = SGP/SGP4

EPOCH          = 2026-01-28T23:00:48.646368
MEAN_MOTION    = 15.60010060
ECCENTRICITY   = .00167975
INCLINATION    = 97.7341
RA_OF_ASC_NODE = 90.6119
ARG_OF_PERICENTER = 97.3398
MEAN_ANOMALY   = 262.9767

EPHEMERIS_TYPE = 0
CLASSIFICATION_TYPE = U
NORAD_CAT_ID   = 28222
ELEMENT_SET_NO = 999
REV_AT_EPOCH   = 19807
BSTAR          = .79436973E-3
MEAN_MOTION_DOT = .64904E-3
MEAN_MOTION_DDOT = 0

CCSDS_OMM_VERS = 2.0
CREATION_DATE  = 
ORIGINATOR     = 

OBJECT_NAME    = SL-16 R/B
OBJECT_ID      = 2004-021B
CENTER_NAME    = EARTH
REF_FRAME      = TEME
TIME_SYSTEM    = UTC
MEAN_ELEMENT_THEORY = SGP/SGP4

EPOCH          = 2026-01-28T22:17:11.699232
MEAN_MOTION    = 14.14590648
ECCENTRICITY   = .00026511
INCLINATION    = 71.0021
RA_OF_ASC_NODE = 315.9364
ARG_OF_PERICENTER = 109.7366
MEAN_ANOMALY   = 250.4043

EPHEMERIS_TYPE = 0
CLASSIFICATION_TYPE = U
NORAD_CAT_ID   = 28353
ELEMENT_SET_NO = 999
REV_AT_EPOCH   = 11721
BSTAR          = -.86626261E-4
MEAN_MOTION_DOT = -.214E-5
MEAN_MOTION_DDOT = 0

CCSDS_OMM_VERS = 2.0
CREATION_DATE  = 
ORIGINATOR     = 

OBJECT_NAME    = CZ-4B R/B
OBJECT_ID      = 2004-035C
CENTER_NAME    = EARTH
REF_FRAME      = TEME
TIME_SYSTEM    = UTC
MEAN_ELEMENT_THEORY = SGP/SGP4

EPOCH          = 2026-01-28T23:31:12.514080
MEAN_MOTION    = 15.28307708
ECCENTRICITY   = .00342914
INCLINATION    = 97.3564
RA_OF_ASC_NODE = 63.7104
ARG_OF_PERICENTER = 108.7725
MEAN_ANOMALY   = 251.7241

EPHEMERIS_TYPE = 0
CLASSIFICATION_TYPE = U
NORAD_CAT_ID   = 28415
ELEMENT_SET_NO = 999
REV_AT_EPOCH   = 17384
BSTAR          = .45498217E-3
MEAN_MOTION_DOT = .12699E-3
MEAN_MOTION_DDOT = 0

CCSDS_OMM_VERS = 2.0
CREATION_DATE  = 
ORIGINATOR     = 

OBJECT_NAME    = CZ-2C R/B
OBJECT_ID      = 2004-046B
CENTER_NAME    = EARTH
REF_FRAME      = TEME
TIME_SYSTEM    = UTC
MEAN_ELEMENT_THEORY = SGP/SGP4

EPOCH          = 2026-01-28T17:28:28.903584
MEAN_MOTION    = 14.26976072
ECCENTRICITY   = .01382091
INCLINATION    = 98.1999
RA_OF_ASC_NODE = 306.1925
ARG_OF_PERICENTER = 273.1494
MEAN_ANOMALY   = 85.3883

EPHEMERIS_TYPE = 0
CLASSIFICATION_TYPE = U
NORAD_CAT_ID   = 28480
ELEMENT_SET_NO = 999
REV_AT_EPOCH   = 10280
BSTAR          = .13337537E-3
MEAN_MOTION_DOT = .316E-5
MEAN_MOTION_DDOT = 0

CCSDS_OMM_VERS = 2.0
CREATION_DATE  = 
ORIGINATOR     = 

OBJECT_NAME    = ARIANE 5 R/B
OBJECT_ID      = 2004-049H
CENTER_NAME    = EARTH
REF_FRAME      = TEME
TIME_SYSTEM    = UTC
MEAN_ELEMENT_THEORY = SGP/SGP4

EPOCH          = 2026-01-28T22:50:08.060352
MEAN_MOTION    = 14.85174819
ECCENTRICITY   = .00853284
INCLINATION    = 98.2558
RA_OF_ASC_NODE = 195.9395
ARG_OF_PERICENTER = 119.5052
MEAN_ANOMALY   = 241.4706

EPHEMERIS_TYPE = 0
CLASSIFICATION_TYPE = U
NORAD_CAT_ID   = 28499
ELEMENT_SET_NO = 999
REV_AT_EPOCH   = 13989
BSTAR          = .2273923E-3
MEAN_MOTION_DOT = .2016E-4
MEAN_MOTION_DDOT = 0

CCSDS_OMM_VERS = 2.0
CREATION_DATE  = 
ORIGINATOR     = 

OBJECT_NAME    = CZ-2D R/B
OBJECT_ID      = 2005-024B
CENTER_NAME    = EARTH
REF_FRAME      = TEME
TIME_SYSTEM    = UTC
MEAN_ELEMENT_THEORY = SGP/SGP4

EPOCH          = 2026-01-28T23:04:45.144768
MEAN_MOTION    = 15.56677583
ECCENTRICITY   = .00063255
INCLINATION    = 97.3622
RA_OF_ASC_NODE = 42.7584
ARG_OF_PERICENTER = 143.8864
MEAN_ANOMALY   = 216.2820

EPHEMERIS_TYPE = 0
CLASSIFICATION_TYPE = U
NORAD_CAT_ID   = 28738
ELEMENT_SET_NO = 999
REV_AT_EPOCH   = 13359
BSTAR          = .71293027E-3
MEAN_MOTION_DOT = .51017E-3
MEAN_MOTION_DDOT = 0

